STARLINK-32446          
1 61262U 24175V   26068.57001700 -.00001344  00000+0 -33267-4 0  9996
2 61262  53.1611 194.7125 0001414  95.9075 264.2087 15.30198810 81431
TEVEL2-1                
1 63217U 25052H   26068.64782323  .00020683  00000+0  70600-3 0  9994
2 63217  97.3991 324.7682 0004767 104.8919 255.2849 15.30341923 54855
